{
  "type": "FeatureCollection",
  "features": [
    {
      "type": "Feature",
      "properties": {
        "norad_id": 44333,
        "name": "AT&T T-16",
        "group": "intelsat",
        "lat": -0.021747974424801576,
        "lon": -98.26510983192281,
        "alt_km": 35787.63142894496,
        "timestamp": "2025-12-09T18:55:16.906675+00:00",
        "meta_object_name": "AT&T T-16",
        "meta_object_id": "2019-034A",
        "meta_epoch": "2025-12-09T13:14:11.020416",
        "meta_mean_motion": 1.00268586,
        "meta_eccentricity": 5.405e-05,
        "meta_inclination": 0.0238,
        "meta_ra_of_asc_node": 62.7711,
        "meta_arg_of_pericenter": 92.6025,
        "meta_mean_anomaly": 20.8533,
        "meta_ephemeris_type": 0,
        "meta_classification_type": "U",
        "meta_norad_cat_id": 44333,
        "meta_element_set_no": 999,
        "meta_rev_at_epoch": 2373,
        "meta_bstar": 0,
        "meta_mean_motion_dot": -1.13e-06,
        "meta_mean_motion_ddot": 0,
        "tle_line1": "1 44333U 19034A   25343.55151644 -.00000113  00000+0  00000+0 0  9996",
        "tle_line2": "2 44333   0.0238  62.7711 0000540  92.6025  20.8533  1.00268586 23731"
      },
      "geometry": {
        "type": "Point",
        "coordinates": [
          -98.26510983192281,
          -0.021747974424801576
        ]
      }
    },
    {
      "type": "Feature",
      "properties": {
        "norad_id": 44476,
        "name": "INTELSAT 39 (IS-39)",
        "group": "intelsat",
        "lat": 0.034455650461298684,
        "lon": 64.52747587832422,
        "alt_km": 35786.39497830948,
        "timestamp": "2025-12-09T18:55:16.906686+00:00",
        "meta_object_name": "INTELSAT 39 (IS-39)",
        "meta_object_id": "2019-049B",
        "meta_epoch": "2025-12-09T13:52:05.984256",
        "meta_mean_motion": 1.00270059,
        "meta_eccentricity": 0.00010144,
        "meta_inclination": 0.0164,
        "meta_ra_of_asc_node": 318.5209,
        "meta_arg_of_pericenter": 194.0541,
        "meta_mean_anomaly": 195.9656,
        "meta_ephemeris_type": 0,
        "meta_classification_type": "U",
        "meta_norad_cat_id": 44476,
        "meta_element_set_no": 999,
        "meta_rev_at_epoch": 2322,
        "meta_bstar": 0,
        "meta_mean_motion_dot": 3.6e-07,
        "meta_mean_motion_ddot": 0,
        "tle_line1": "1 44476U 19049B   25343.57784704  .00000036  00000+0  00000+0 0  9994",
        "tle_line2": "2 44476   0.0164 318.5209 0001014 194.0541 195.9656  1.00270059 23220"
      },
      "geometry": {
        "type": "Point",
        "coordinates": [
          64.52747587832422,
          0.034455650461298684
        ]
      }
    },
    {
      "type": "Feature",
      "properties": {
        "norad_id": 46114,
        "name": "GALAXY 30 (G-30)",
        "group": "intelsat",
        "lat": -0.0315968108212186,
        "lon": -122.42233263582634,
        "alt_km": 35776.661616074074,
        "timestamp": "2025-12-09T18:55:16.906698+00:00",
        "meta_object_name": "GALAXY 30 (G-30)",
        "meta_object_id": "2020-056C",
        "meta_epoch": "2025-12-09T09:54:15.136416",
        "meta_mean_motion": 1.00271447,
        "meta_eccentricity": 0.0002386,
        "meta_inclination": 0.0167,
        "meta_ra_of_asc_node": 3.1394,
        "meta_arg_of_pericenter": 254.3856,
        "meta_mean_anomaly": 204.4379,
        "meta_ephemeris_type": 0,
        "meta_classification_type": "U",
        "meta_norad_cat_id": 46114,
        "meta_element_set_no": 999,
        "meta_rev_at_epoch": 1939,
        "meta_bstar": 0,
        "meta_mean_motion_dot": 3.9e-07,
        "meta_mean_motion_ddot": 0,
        "tle_line1": "1 46114U 20056C   25343.41267519  .00000039  00000+0  00000+0 0  9991",
        "tle_line2": "2 46114   0.0167   3.1394 0002386 254.3856 204.4379  1.00271447 19391"
      },
      "geometry": {
        "type": "Point",
        "coordinates": [
          -122.42233263582634,
          -0.0315968108212186
        ]
      }
    },
    {
      "type": "Feature",
      "properties": {
        "norad_id": 54026,
        "name": "GALAXY 33 (G-33)",
        "group": "intelsat",
        "lat": -0.02954844893515683,
        "lon": -130.4136827643989,
        "alt_km": 35777.0847366791,
        "timestamp": "2025-12-09T18:55:16.906709+00:00",
        "meta_object_name": "GALAXY 33 (G-33)",
        "meta_object_id": "2022-128A",
        "meta_epoch": "2025-12-09T12:02:03.515712",
        "meta_mean_motion": 1.00272257,
        "meta_eccentricity": 0.00022285,
        "meta_inclination": 0.0135,
        "meta_ra_of_asc_node": 306.5722,
        "meta_arg_of_pericenter": 303.2517,
        "meta_mean_anomaly": 236.1854,
        "meta_ephemeris_type": 0,
        "meta_classification_type": "U",
        "meta_norad_cat_id": 54026,
        "meta_element_set_no": 999,
        "meta_rev_at_epoch": 1184,
        "meta_bstar": 0,
        "meta_mean_motion_dot": 8.1e-07,
        "meta_mean_motion_ddot": 0,
        "tle_line1": "1 54026U 22128A   25343.50142958  .00000081  00000+0  00000+0 0  9990",
        "tle_line2": "2 54026   0.0135 306.5722 0002228 303.2517 236.1854  1.00272257 11847"
      },
      "geometry": {
        "type": "Point",
        "coordinates": [
          -130.4136827643989,
          -0.02954844893515683
        ]
      }
    },
    {
      "type": "Feature",
      "properties": {
        "norad_id": 54027,
        "name": "GALAXY 34 (G-34)",
        "group": "intelsat",
        "lat": -0.04393355637488411,
        "lon": -126.34343412704348,
        "alt_km": 35781.13506705546,
        "timestamp": "2025-12-09T18:55:16.906721+00:00",
        "meta_object_name": "GALAXY 34 (G-34)",
        "meta_object_id": "2022-128B",
        "meta_epoch": "2025-12-09T14:45:08.313120",
        "meta_mean_motion": 1.00270553,
        "meta_eccentricity": 0.00012812,
        "meta_inclination": 0.025,
        "meta_ra_of_asc_node": 324.9472,
        "meta_arg_of_pericenter": 281.4096,
        "meta_mean_anomaly": 284.6001,
        "meta_ephemeris_type": 0,
        "meta_classification_type": "U",
        "meta_norad_cat_id": 54027,
        "meta_element_set_no": 999,
        "meta_rev_at_epoch": 1201,
        "meta_bstar": 0,
        "meta_mean_motion_dot": 0,
        "meta_mean_motion_ddot": 0,
        "tle_line1": "1 54027U 22128B   25343.61467955  .00000000  00000+0  00000+0 0  9991",
        "tle_line2": "2 54027   0.0250 324.9472 0001281 281.4096 284.6001  1.00270553 12018"
      },
      "geometry": {
        "type": "Point",
        "coordinates": [
          -126.34343412704348,
          -0.04393355637488411
        ]
      }
    },
    {
      "type": "Feature",
      "properties": {
        "norad_id": 54243,
        "name": "GALAXY 31 (G-31)",
        "group": "intelsat",
        "lat": -0.016993270346058548,
        "lon": -118.41473733489579,
        "alt_km": 35778.95937311346,
        "timestamp": "2025-12-09T18:55:16.906732+00:00",
        "meta_object_name": "GALAXY 31 (G-31)",
        "meta_object_id": "2022-153A",
        "meta_epoch": "2025-12-09T12:40:55.451712",
        "meta_mean_motion": 1.00271959,
        "meta_eccentricity": 0.00019032,
        "meta_inclination": 0.0189,
        "meta_ra_of_asc_node": 256.7344,
        "meta_arg_of_pericenter": 13.663,
        "meta_mean_anomaly": 237.3558,
        "meta_ephemeris_type": 0,
        "meta_classification_type": "U",
        "meta_norad_cat_id": 54243,
        "meta_element_set_no": 999,
        "meta_rev_at_epoch": 523,
        "meta_bstar": 0,
        "meta_mean_motion_dot": 1.5e-07,
        "meta_mean_motion_ddot": 0,
        "tle_line1": "1 54243U 22153A   25343.52841958  .00000015  00000+0  00000+0 0  9994",
        "tle_line2": "2 54243   0.0189 256.7344 0001903  13.6630 237.3558  1.00271959  5238"
      },
      "geometry": {
        "type": "Point",
        "coordinates": [
          -118.41473733489579,
          -0.016993270346058548
        ]
      }
    },
    {
      "type": "Feature",
      "properties": {
        "norad_id": 54244,
        "name": "GALAXY 32 (G-32)",
        "group": "intelsat",
        "lat": -0.02666922059162323,
        "lon": -88.4321809092949,
        "alt_km": 35777.32423899409,
        "timestamp": "2025-12-09T18:55:16.906744+00:00",
        "meta_object_name": "GALAXY 32 (G-32)",
        "meta_object_id": "2022-153B",
        "meta_epoch": "2025-12-09T12:24:44.332992",
        "meta_mean_motion": 1.00270521,
        "meta_eccentricity": 0.00027242,
        "meta_inclination": 0.0086,
        "meta_ra_of_asc_node": 338.62,
        "meta_arg_of_pericenter": 330.4778,
        "meta_mean_anomaly": 224.5904,
        "meta_ephemeris_type": 0,
        "meta_classification_type": "U",
        "meta_norad_cat_id": 54244,
        "meta_element_set_no": 999,
        "meta_rev_at_epoch": 1124,
        "meta_bstar": 0,
        "meta_mean_motion_dot": -1.72e-06,
        "meta_mean_motion_ddot": 0,
        "tle_line1": "1 54244U 22153B   25343.51717978 -.00000172  00000+0  00000+0 0  9993",
        "tle_line2": "2 54244   0.0086 338.6200 0002724 330.4778 224.5904  1.00270521 11246"
      },
      "geometry": {
        "type": "Point",
        "coordinates": [
          -88.4321809092949,
          -0.02666922059162323
        ]
      }
    }
  ]
}